STARLINK-35938          
1 66644U 25271AD  26141.32888739  .00006386  00000+0  22758-3 0  9994
2 66644  53.1585 162.8365 0001256  94.1212 265.9932 15.30196302 28689
SHENZHOU-22             
1 66645U 25272A   26140.83756287  .00011714  00000+0  14070-3 0  9992
2 66645  41.4676 128.3095 0007408 269.1173  90.8817 15.60706340289513
COSMOS 2597 (RODNIK-S *)
1 66647U 25273A   26141.19330364  .00000009  00000+0 -60395-5 0  9998
2 66647  82.5004 187.3048 0010374 276.2856  83.7042 12.42898681 21941
COSMOS 2598 (RODNIK-S *)
1 66648U 25273B   26141.16303563  .00000006  00000+0 -26068-4 0  9992
2 66648  82.5042 187.3434 0009646 240.8021 119.2094 12.42917797 21946
COSMOS 2599 (RODNIK-S *)
1 66649U 25273C   26141.22038496  .00000013  00000+0  21648-4 0  9996
2 66649  82.5041 187.3917 0014523 261.0811  98.8625 12.42896650 21940
BEE-1000                
1 66650U 25274A   26140.53784168  .00001758  00000+0  17533-3 0  9990
2 66650  97.7482  70.0337 0013562  86.3570 273.9200 14.92757888 26086
2025-274B               
1 66651U 25274B   26141.11332292  .00001484  00000+0  14774-3 0  9993
2 66651  97.7475  70.6515 0013816  82.8840 277.3950 14.93054103 26177
2025-274C               
1 66652U 25274C   26141.24916548  .00001226  00000+0  12347-3 0  9998
2 66652  97.7480  70.7912 0013408  88.0253 272.2502 14.92918943 26198
2025-274D               
1 66653U 25274D   26141.26296845  .00000951  00000+0  97610-4 0  9993
2 66653  97.7483  70.7744 0014257  85.5412 274.7436 14.92666528 26199
JACK E                  
1 66654U 25274E   26140.76665031  .00001195  00000+0  12034-3 0  9992
2 66654  97.7484  70.3525 0014835  88.0076 272.2842 14.92961016 26127
CAS500-3                
1 66655U 25274F   26141.25486187  .00000819  00000+0  94481-4 0  9990
2 66655  97.7445  69.9206 0004748 188.2557 171.8583 14.88247192 26149
2025-274G               
1 66656U 25274G   26141.07407555  .00001500  00000+0  14857-3 0  9999
2 66656  97.7482  70.7131 0015454  88.1934 272.1055 14.93243090 26172
SPIRONE                 
1 66657U 25274H   26140.51736684  .00000992  00000+0  99691-4 0  9990
2 66657  97.7480  70.2075 0013714 104.2422 256.0322 14.93415996 26097
COSMIC                  
1 66658U 25274J   26141.07184865  .00002365  00000+0  22626-3 0  9990
2 66658  97.7472  70.8625 0014272 104.6237 255.6567 14.94089135 26183
JACK K                  
1 66659U 25274K   26140.74724935  .00001468  00000+0  14386-3 0  9999
2 66659  97.7484  70.5283 0014963 107.3248 252.9610 14.93710872 26135
K-HERO                  
1 66660U 25274L   26141.06561328  .00001114  00000+0  11008-3 0  9998
2 66660  97.7487  70.8887 0015541 106.9356 253.3569 14.93841025 26189
SNUGLITE-III            
1 66661U 25274M   26141.05422481  .00000784  00000+0  78969-4 0  9996
2 66661  97.7485  70.8971 0016151 107.9513 252.3470 14.93894337 26180
E3T-1 (E3TESTER-1)      
1 66662U 25274N   26140.77378196  .00001053  00000+0  10372-3 0  9991
2 66662  97.7487  70.6527 0016465 108.0947 252.2069 14.94064349 26141
SOYUZ-MS 28             
1 66664U 25275A   26141.16510469  .00005835  00000+0  11282-3 0  9992
2 66664  51.6328  73.8715 0007528  81.3651 278.8190 15.49291753567326
FORMOSAT-8A             
1 66666U 25276A   26141.27162563  .00000990  00000+0  82037-4 0  9999
2 66666  97.6552 215.9181 0006966  11.6274 348.5110 15.01066718 26028
PELICAN-5               
1 66667U 25276B   26141.18379183  .00008435  00000+0  30380-3 0  9993
2 66667  97.4166 216.2558 0005536  92.1223 268.0651 15.28809762 26399
TRANSPORTER-15 OBJECT C 
1 66668U 25276C   26141.02300543  .00020149  00000+0  78123-3 0  9994
2 66668  97.4051 215.4306 0008486 109.8337 250.3817 15.26131734 26342
TRANSPORTER-15 OBJECT D 
1 66669U 25276D   26141.28944400  .00019287  00000+0  75528-3 0  9996
2 66669  97.4069 215.7228 0008580 111.7297 248.4855 15.25808125 26388
HUNITY                  
1 66670U 25276E   26141.18041264  .00017252  00000+0  68272-3 0  9991
2 66670  97.4077 215.5838 0008401 112.2770 247.9360 15.25482175 26364
TRANSPORTER-15 OBJECT F 
1 66671U 25276F   26141.15117297  .00007685  00000+0  34975-3 0  9991
2 66671  97.4208 215.3055 0007398  97.3908 262.8169 15.20961720 26322
BRO-17                  
1 66672U 25276G   26141.15414194  .00002784  00000+0  14096-3 0  9995
2 66672  97.4194 214.7972 0008521  95.9021 264.3185 15.17792662 26291
TRANSPORTER-15 OBJECT H 
1 66673U 25276H   26141.15631665  .00013346  00000+0  58420-3 0  9995
2 66673  97.4158 215.3238 0007876 110.0861 250.1224 15.22134622 26331
BRO-20                  
1 66674U 25276J   26141.20219974  .00002323  00000+0  11760-3 0  9996
2 66674  97.4170 214.8347 0008115  98.3830 261.8324 15.17966124 26303
VEERY-0G                
1 66675U 25276K   26141.19043950  .00006106  00000+0  28383-3 0  9996
2 66675  97.4176 215.1752 0007540 101.8122 258.3959 15.20313198 26327
TRANSPORTER-15 OBJECT L 
1 66676U 25276L   26141.22123464  .00003844  00000+0  18831-3 0  9993
2 66676  97.4179 214.9878 0007663  99.7412 260.4689 15.18722321 26312
