OBJECT_NAME,OBJECT_ID,EPOCH,MEAN_MOTION,ECCENTRICITY,INCLINATION,RA_OF_ASC_NODE,ARG_OF_PERICENTER,MEAN_ANOMALY,EPHEMERIS_TYPE,CLASSIFICATION_TYPE,NORAD_CAT_ID,ELEMENT_SET_NO,REV_AT_EPOCH,BSTAR,MEAN_MOTION_DOT,MEAN_MOTION_DDOT
STARLINK-35938,2025-271AD,2026-05-21T07:53:35.870496,15.30196302,.00012567,53.1585,162.8365,94.1212,265.9932,0,U,66644,999,2868,.22757817E-3,.6386E-4,0
SHENZHOU-22,2025-272A,2026-05-20T20:06:05.431968,15.60706340,.00074086,41.4676,128.3095,269.1173,90.8817,0,U,66645,999,28951,.14070295E-3,.11714E-3,0
COSMOS 2597 (RODNIK-S 22),2025-273A,2026-05-21T04:38:21.434496,12.42898681,.00103744,82.5004,187.3048,276.2856,83.7042,0,U,66647,999,2194,-.6039526E-5,.9E-7,0
COSMOS 2598 (RODNIK-S 23),2025-273B,2026-05-21T03:54:46.278432,12.42917797,.00096468,82.5042,187.3434,240.8021,119.2094,0,U,66648,999,2194,-.26068087E-4,.6E-7,0
COSMOS 2599 (RODNIK-S 24),2025-273C,2026-05-21T05:17:21.260544,12.42896650,.0014523,82.5041,187.3917,261.0811,98.8625,0,U,66649,999,2194,.21647836E-4,.13E-6,0
BEE-1000,2025-274A,2026-05-20T12:54:29.521152,14.92757888,.00135629,97.7482,70.0337,86.3570,273.9200,0,U,66650,999,2608,.17533282E-3,.1758E-4,0
2025-274B,2025-274B,2026-05-21T02:43:11.100288,14.93054103,.00138167,97.7475,70.6515,82.8840,277.3950,0,U,66651,999,2617,.14773975E-3,.1484E-4,0
2025-274C,2025-274C,2026-05-21T05:58:47.897472,14.92918943,.00134081,97.7480,70.7912,88.0253,272.2502,0,U,66652,999,2619,.12346981E-3,.1226E-4,0
2025-274D,2025-274D,2026-05-21T06:18:40.474080,14.92666528,.00142578,97.7483,70.7744,85.5412,274.7436,0,U,66653,999,2619,.9761026E-4,.951E-5,0
JACK E,2025-274E,2026-05-20T18:23:58.586784,14.92961016,.00148357,97.7484,70.3525,88.0076,272.2842,0,U,66654,999,2612,.12033749E-3,.1195E-4,0
CAS500-3,2025-274F,2026-05-21T06:07:00.065568,14.88247192,.00047488,97.7445,69.9206,188.2557,171.8583,0,U,66655,999,2614,.94480539E-4,.819E-5,0
2025-274G,2025-274G,2026-05-21T01:46:40.127520,14.93243090,.0015454,97.7482,70.7131,88.1934,272.1055,0,U,66656,999,2617,.14856517E-3,.15E-4,0
SPIRONE,2025-274H,2026-05-20T12:25:00.494976,14.93415996,.00137141,97.7480,70.2075,104.2422,256.0322,0,U,66657,999,2609,.99691123E-4,.992E-5,0
COSMIC,2025-274J,2026-05-21T01:43:27.723360,14.94089135,.00142722,97.7472,70.8625,104.6237,255.6567,0,U,66658,999,2618,.22626292E-3,.2365E-4,0
JACK K,2025-274K,2026-05-20T17:56:02.343840,14.93710872,.00149632,97.7484,70.5283,107.3248,252.9610,0,U,66659,999,2613,.14385569E-3,.1468E-4,0
K-HERO,2025-274L,2026-05-21T01:34:28.987392,14.93841025,.00155412,97.7487,70.8887,106.9356,253.3569,0,U,66660,999,2618,.11007864E-3,.1114E-4,0
SNUGLITE-III,2025-274M,2026-05-21T01:18:05.023584,14.93894337,.00161519,97.7485,70.8971,107.9513,252.3470,0,U,66661,999,2618,.78968671E-4,.784E-5,0
E3T-1 (E3TESTER-1),2025-274N,2026-05-20T18:34:14.761344,14.94064349,.00164657,97.7487,70.6527,108.0947,252.2069,0,U,66662,999,2614,.10371881E-3,.1053E-4,0
SOYUZ-MS 28,2025-275A,2026-05-21T03:57:45.045216,15.49291753,.00075289,51.6328,73.8715,81.3651,278.8190,0,U,66664,999,56732,.11282021E-3,.5835E-4,0
FORMOSAT-8A,2025-276A,2026-05-21T06:31:08.454432,15.01066718,.00069661,97.6552,215.9181,11.6274,348.5110,0,U,66666,999,2602,.82036958E-4,.99E-5,0
PELICAN-5,2025-276B,2026-05-21T04:24:39.614112,15.28809762,.00055365,97.4166,216.2558,92.1223,268.0651,0,U,66667,999,2639,.30379935E-3,.8435E-4,0
TRANSPORTER-15 OBJECT C,2025-276C,2026-05-21T00:33:07.669152,15.26131734,.0008486,97.4051,215.4306,109.8337,250.3817,0,U,66668,999,2634,.78122913E-3,.20149E-3,0
TRANSPORTER-15 OBJECT D,2025-276D,2026-05-21T06:56:47.961600,15.25808125,.00085803,97.4069,215.7228,111.7297,248.4855,0,U,66669,999,2638,.75527978E-3,.19287E-3,0
HUNITY,2025-276E,2026-05-21T04:19:47.652096,15.25482175,.00084013,97.4077,215.5838,112.2770,247.9360,0,U,66670,999,2636,.68271631E-3,.17252E-3,0
TRANSPORTER-15 OBJECT F,2025-276F,2026-05-21T03:37:41.344608,15.20961720,.00073982,97.4208,215.3055,97.3908,262.8169,0,U,66671,999,2632,.34975122E-3,.7685E-4,0
BRO-17,2025-276G,2026-05-21T03:41:57.863616,15.17792662,.00085218,97.4194,214.7972,95.9021,264.3185,0,U,66672,999,2629,.14096111E-3,.2784E-4,0
TRANSPORTER-15 OBJECT H,2025-276H,2026-05-21T03:45:05.758560,15.22134622,.00078768,97.4158,215.3238,110.0861,250.1224,0,U,66673,999,2633,.58419673E-3,.13346E-3,0
BRO-20,2025-276J,2026-05-21T04:51:10.057536,15.17966124,.00081154,97.4170,214.8347,98.3830,261.8324,0,U,66674,999,2630,.11760493E-3,.2323E-4,0
VEERY-0G,2025-276K,2026-05-21T04:34:13.972800,15.20313198,.00075405,97.4176,215.1752,101.8122,258.3959,0,U,66675,999,2632,.28382578E-3,.6106E-4,0
TRANSPORTER-15 OBJECT L,2025-276L,2026-05-21T05:18:34.672896,15.18722321,.00076639,97.4179,214.9878,99.7412,260.4689,0,U,66676,999,2631,.18831164E-3,.3844E-4,0
